GALAXY 37 (G-37)        
1 57493U 23112A   26201.49488968  .00000047  00000+0  00000+0 0  9993
2 57493   0.0191  58.1540 0002062  58.9230 232.3435  1.00272492 10876
LUDI TANCE-4 01A        
1 57624U 23120A   26200.93101191 -.00000178  00000+0  00000+0 0  9992
2 57624  15.0837 193.1551 0001652  11.3795 157.9203  1.00275287 10870
TJS-10                  
1 58204U 23169A   26201.70793352 -.00000252  00000+0  00000+0 0  9995
2 58204   2.6287  80.0907 0004103 112.4238  93.2304  1.00272677  9876
ZHONGXING-6E            
1 58253U 23172A   26200.35779580 -.00000366  00000+0  00000+0 0  9996
2 58253   0.0313  91.9638 0002926  19.0453  70.4510  1.00269836  9987
YAOGAN-41               
1 58582U 23197A   26201.64272596 -.00000360  00000+0  00000+0 0  9990
2 58582   3.0685 313.6771 0014024 200.3762 138.8925  1.00274938  9651
OVZON-3                 
1 58698U 24003A   26201.58833752  .00000050  00000+0  00000+0 0  9990
2 58698   0.0205 150.3433 0000550 221.9588 197.5378  1.00274116  7783
INSAT-3DS               
1 58990U 24033A   26201.62131944 -.00000156  00000+0  00000+0 0  9995
2 58990   0.0765 263.8272 0001289 220.8921 119.3999  1.00270786 47402
MERAH PUTIH 2           
1 58995U 24035A   26201.54420071  .00000000  00000+0  00000+0 0  9992
2 58995   0.0201  67.2004 0001298  46.0062 133.9834  1.00269428  8920
TJS-11                  
1 59020U 24037A   26200.69295683 -.00000366  00000+0  00000+0 0  9994
2 59020   4.1569 327.4956 0001984 154.9321 177.0954  1.00272166  8901
HULIANWAN GAOGUI-01 (H*)
1 59069U 24040A   26201.48246237  .00000155  00000+0  00000+0 0  9995
2 59069   0.0762 331.3090 0001854  77.2786  96.9964  1.00272780  7669
EUTELSAT 36D            
1 59346U 24059A   26201.48289571  .00000154  00000+0  00000+0 0  9990
2 59346   0.0149  65.5776 0000171 352.0310  90.3483  1.00268976  8488
PAKSAT-MM1              
1 59915U 24104A   26201.48332905  .00000152  00000+0  00000+0 0  9991
2 59915   0.0294 162.8141 0002261 299.3240  48.3159  1.00275782  7862
ASTRA 1P (SES-24)       
1 60086U 24115A   26201.33694610  .00000116  00000+0  00000+0 0  9992
2 60086   0.0684 327.6537 0000599 173.6274 297.3300  1.00258288  7539
GOES 19                 
1 60133U 24119A   26201.46088228 -.00000250  00000+0  00000+0 0  9995
2 60133   0.0196 138.2572 0000287  48.2970 202.4001  1.00272602  7293
ZHONGXING-3A            
1 60179U 24122A   26199.91926046 -.00000320  00000+0  00000+0 0  9992
2 60179   0.0292 137.1691 0001833  19.8104 212.2555  1.00273255  7626
TURKSAT 6A              
1 60233U 24127A   26201.48393572  .00000145  00000+0  00000+0 0  9990
2 60233   0.0518 222.9014 0003106 303.7474 347.7887  1.00273506  7351
HULIANWAN GAOGUI-02 (H*)
1 60327U 24135A   26200.15153279 -.00000179  00000+0  00000+0 0  9992
2 60327   0.0477 354.3317 0006169  15.7361 134.4616  1.00271644  7826
ZHONGXING-4A            
1 60606U 24151A   26201.54392293 -.00000363  00000+0  00000+0 0  9990
2 60606   1.2295 270.4300 0000059  13.1100 328.8074  1.00273034  7082
HULIANWAN GAOGUI-03 (H*)
1 61503U 24181A   26201.60305869 -.00000241  00000+0  00000+0 0  9995
2 61503   0.0525 356.3105 0001286  95.1626 346.8452  1.00267364  7163
DSN-3 (KIRAMEKI-3)      
1 61733U 24198A   26201.60739127 -.00000251  00000+0  00000+0 0  9997
2 61733   0.0383 239.1312 0001095 261.0254 160.9450  1.00271199  6250
KOREASAT 6A             
1 61910U 24206A   26201.54420071 -.00000363  00000+0  00000+0 0  9996
2 61910   0.0264 102.4149 0001030 339.6007 168.2256  1.00272936  6178
OPTUS-X (ADS-01)        
1 62006U 24212A   26201.54975258  .00000000  00000+0  00000+0 0  9999
2 62006   0.0234  51.3585 0002431  86.1801 155.1088  1.00269918  6095
GSAT-N2 (GSAT-20)       
1 62028U 24214A   26201.48922241 -.00000020  00000+0  00000+0 0  9995
2 62028   0.0603 260.0584 0002715 150.7839 131.4703  1.00272494  6231
SXM-9                   
1 62259U 24234A   26201.45888894 -.00000206  00000+0  00000+0 0  9991
2 62259   0.0222 323.9600 0004782 357.4768  56.8275  1.00271524  5905
TJS-12                  
1 62374U 24246A   26201.63169722 -.00000233  00000+0  00000+0 0  9994
2 62374   0.5999 302.7599 0001916 102.9770 266.5397  1.00268210  5894
NUVIEW ALPHA            
1 62455U 24252B   26201.45932227 -.00000217  00000+0  00000+0 0  9991
2 62455   0.0402  19.9711 0001280  72.8126 287.7079  1.00271902  4157
AGILA                   
1 62456U 24252C   26201.46641767 -.00000183  00000+0  00000+0 0  9991
2 62456   0.0378 148.9871 0001435 332.0221 137.3037  1.00271358  5496
NUVIEW BRAVO            
1 62457U 24252D   26201.45932227 -.00000216  00000+0  00000+0 0  9992
2 62457   0.0675 167.1199 0001757 338.5732 234.7868  1.00272443  4127
THURAYA-4               
1 62483U 25001A   26201.48454238  .00000138  00000+0  00000+0 0  9990
2 62483   0.0214  76.8942 0000087 341.6727  98.4377  1.00273051  4510
SHIJIAN-25 (SJ-25)      
1 62485U 25002A   26201.68125779 -.00000354  00000+0  00000+0 0  9991
2 62485   5.1911  60.9512 0050815 176.6989  73.1922  1.00277224  5691
TJS-14                  
1 62804U 25017A   26201.26557586  .00000113  00000+0  00000+0 0  9993
2 62804   0.7094 298.1684 0001888 304.7425 169.1032  1.00269777  5602
