OBJECT_NAME,OBJECT_ID,EPOCH,MEAN_MOTION,ECCENTRICITY,INCLINATION,RA_OF_ASC_NODE,ARG_OF_PERICENTER,MEAN_ANOMALY,EPHEMERIS_TYPE,CLASSIFICATION_TYPE,NORAD_CAT_ID,ELEMENT_SET_NO,REV_AT_EPOCH,BSTAR,MEAN_MOTION_DOT,MEAN_MOTION_DDOT
GALAXY 37 (G-37),2023-112A,2026-07-20T11:52:38.468352,1.00272492,.00020624,0.0191,58.1540,58.9230,232.3435,0,U,57493,999,1087,0,.47E-6,0
LUDI TANCE-4 01A,2023-120A,2026-07-19T22:20:39.429024,1.00275287,.00016523,15.0837,193.1551,11.3795,157.9203,0,U,57624,999,1087,0,-.178E-5,0
TJS-10,2023-169A,2026-07-20T16:59:25.456128,1.00272677,.0004103,2.6287,80.0907,112.4238,93.2304,0,U,58204,999,987,0,-.252E-5,0
ZHONGXING-6E,2023-172A,2026-07-19T08:35:13.557120,1.00269836,.00029267,0.0313,91.9638,19.0453,70.4510,0,U,58253,999,998,0,-.366E-5,0
YAOGAN-41,2023-197A,2026-07-20T15:25:31.522944,1.00274938,.00140242,3.0685,313.6771,200.3762,138.8925,0,U,58582,999,965,0,-.36E-5,0
OVZON-3,2024-003A,2026-07-20T14:07:12.361728,1.00274116,.00005508,0.0205,150.3433,221.9588,197.5378,0,U,58698,999,778,0,.5E-6,0
INSAT-3DS,2024-033A,2026-07-20T14:54:41.999616,1.00270786,.00012893,0.0765,263.8272,220.8921,119.3999,0,U,58990,999,4740,0,-.156E-5,0
MERAH PUTIH 2,2024-035A,2026-07-20T13:03:38.941344,1.00269428,.00012983,0.0201,67.2004,46.0062,133.9834,0,U,58995,999,892,0,0,0
TJS-11,2024-037A,2026-07-19T16:37:51.470112,1.00272166,.0001984,4.1569,327.4956,154.9321,177.0954,0,U,59020,999,890,0,-.366E-5,0
HULIANWAN GAOGUI-01 (HG-01),2024-040A,2026-07-20T11:34:44.748768,1.00272780,.00018546,0.0762,331.3090,77.2786,96.9964,0,U,59069,999,766,0,.155E-5,0
EUTELSAT 36D,2024-059A,2026-07-20T11:35:22.189344,1.00268976,.00001718,0.0149,65.5776,352.0310,90.3483,0,U,59346,999,848,0,.154E-5,0
PAKSAT-MM1,2024-104A,2026-07-20T11:35:59.629920,1.00275782,.0002261,0.0294,162.8141,299.3240,48.3159,0,U,59915,999,786,0,.152E-5,0
ASTRA 1P (SES-24),2024-115A,2026-07-20T08:05:12.143040,1.00258288,.00005992,0.0684,327.6537,173.6274,297.3300,0,U,60086,999,753,0,.116E-5,0
GOES 19,2024-119A,2026-07-20T11:03:40.228992,1.00272602,.00002879,0.0196,138.2572,48.2970,202.4001,0,U,60133,999,729,0,-.25E-5,0
ZHONGXING-3A,2024-122A,2026-07-18T22:03:44.103744,1.00273255,.0001833,0.0292,137.1691,19.8104,212.2555,0,U,60179,999,762,0,-.32E-5,0
TURKSAT 6A,2024-127A,2026-07-20T11:36:52.046208,1.00273506,.0003106,0.0518,222.9014,303.7474,347.7887,0,U,60233,999,735,0,.145E-5,0
HULIANWAN GAOGUI-02 (HG-02),2024-135A,2026-07-19T03:38:12.433056,1.00271644,.00061695,0.0477,354.3317,15.7361,134.4616,0,U,60327,999,782,0,-.179E-5,0
ZHONGXING-4A,2024-151A,2026-07-20T13:03:14.941152,1.00273034,.0000059,1.2295,270.4300,13.1100,328.8074,0,U,60606,999,708,0,-.363E-5,0
HULIANWAN GAOGUI-03 (HG-03),2024-181A,2026-07-20T14:28:24.270816,1.00267364,.00012868,0.0525,356.3105,95.1626,346.8452,0,U,61503,999,716,0,-.241E-5,0
DSN-3 (KIRAMEKI-3),2024-198A,2026-07-20T14:34:38.605728,1.00271199,.00010957,0.0383,239.1312,261.0254,160.9450,0,U,61733,999,625,0,-.251E-5,0
KOREASAT 6A,2024-206A,2026-07-20T13:03:38.941344,1.00272936,.00010306,0.0264,102.4149,339.6007,168.2256,0,U,61910,999,617,0,-.363E-5,0
OPTUS-X (ADS-01),2024-212A,2026-07-20T13:11:38.622912,1.00269918,.00024313,0.0234,51.3585,86.1801,155.1088,0,U,62006,999,609,0,0,0
GSAT-N2 (GSAT-20),2024-214A,2026-07-20T11:44:28.816224,1.00272494,.00027154,0.0603,260.0584,150.7839,131.4703,0,U,62028,999,623,0,-.2E-6,0
SXM-9,2024-234A,2026-07-20T11:00:48.004416,1.00271524,.00047821,0.0222,323.9600,357.4768,56.8275,0,U,62259,999,590,0,-.206E-5,0
TJS-12,2024-246A,2026-07-20T15:09:38.639808,1.00268210,.00019167,0.5999,302.7599,102.9770,266.5397,0,U,62374,999,589,0,-.233E-5,0
NUVIEW ALPHA,2024-252B,2026-07-20T11:01:25.444128,1.00271902,.00012805,0.0402,19.9711,72.8126,287.7079,0,U,62455,999,415,0,-.217E-5,0
AGILA,2024-252C,2026-07-20T11:11:38.486688,1.00271358,.00014356,0.0378,148.9871,332.0221,137.3037,0,U,62456,999,549,0,-.183E-5,0
NUVIEW BRAVO,2024-252D,2026-07-20T11:01:25.444128,1.00272443,.00017579,0.0675,167.1199,338.5732,234.7868,0,U,62457,999,412,0,-.216E-5,0
THURAYA-4,2025-001A,2026-07-20T11:37:44.461632,1.00273051,.00000877,0.0214,76.8942,341.6727,98.4377,0,U,62483,999,451,0,.138E-5,0
SHIJIAN-25 (SJ-25),2025-002A,2026-07-20T16:21:00.673056,1.00277224,.0050815,5.1911,60.9512,176.6989,73.1922,0,U,62485,999,569,0,-.354E-5,0
TJS-14,2025-017A,2026-07-20T06:22:25.754304,1.00269777,.00018889,0.7094,298.1684,304.7425,169.1032,0,U,62804,999,560,0,.113E-5,0
